CCSDS_OMM_VERS = 2.0
CREATION_DATE  = 
ORIGINATOR     = 

OBJECT_NAME    = STARLINK-35726
OBJECT_ID      = 2025-247R
CENTER_NAME    = EARTH
REF_FRAME      = TEME
TIME_SYSTEM    = UTC
MEAN_ELEMENT_THEORY = SGP/SGP4

EPOCH          = 2025-11-27T06:00:02.000160
MEAN_MOTION    = 15.39597753
ECCENTRICITY   = .00014067
INCLINATION    = 53.1588
RA_OF_ASC_NODE = 310.3721
ARG_OF_PERICENTER = 80.0027
MEAN_ANOMALY   = 1.2089

EPHEMERIS_TYPE = 0
CLASSIFICATION_TYPE = U
NORAD_CAT_ID   = 66280
ELEMENT_SET_NO = 999
REV_AT_EPOCH   = 512
BSTAR          = .6034251E-3
MEAN_MOTION_DOT = .23795E-3
MEAN_MOTION_DDOT = 0

CCSDS_OMM_VERS = 2.0
CREATION_DATE  = 
ORIGINATOR     = 

OBJECT_NAME    = STARLINK-35727
OBJECT_ID      = 2025-247S
CENTER_NAME    = EARTH
REF_FRAME      = TEME
TIME_SYSTEM    = UTC
MEAN_ELEMENT_THEORY = SGP/SGP4

EPOCH          = 2025-11-27T06:00:02.000160
MEAN_MOTION    = 15.39597676
ECCENTRICITY   = .00021167
INCLINATION    = 53.1596
RA_OF_ASC_NODE = 310.2728
ARG_OF_PERICENTER = 86.2827
MEAN_ANOMALY   = 44.4840

EPHEMERIS_TYPE = 0
CLASSIFICATION_TYPE = U
NORAD_CAT_ID   = 66281
ELEMENT_SET_NO = 999
REV_AT_EPOCH   = 512
BSTAR          = .1014065E-2
MEAN_MOTION_DOT = .40348E-3
MEAN_MOTION_DDOT = 0

CCSDS_OMM_VERS = 2.0
CREATION_DATE  = 
ORIGINATOR     = 

OBJECT_NAME    = STARLINK-35776
OBJECT_ID      = 2025-247T
CENTER_NAME    = EARTH
REF_FRAME      = TEME
TIME_SYSTEM    = UTC
MEAN_ELEMENT_THEORY = SGP/SGP4

EPOCH          = 2025-11-27T06:00:02.000160
MEAN_MOTION    = 15.39603102
ECCENTRICITY   = .00019849
INCLINATION    = 53.1598
RA_OF_ASC_NODE = 310.2684
ARG_OF_PERICENTER = 87.4349
MEAN_ANOMALY   = 45.2055

EPHEMERIS_TYPE = 0
CLASSIFICATION_TYPE = U
NORAD_CAT_ID   = 66282
ELEMENT_SET_NO = 999
REV_AT_EPOCH   = 512
BSTAR          = .1034208E-2
MEAN_MOTION_DOT = .41169E-3
MEAN_MOTION_DDOT = 0

CCSDS_OMM_VERS = 2.0
CREATION_DATE  = 
ORIGINATOR     = 

OBJECT_NAME    = STARLINK-35774
OBJECT_ID      = 2025-247U
CENTER_NAME    = EARTH
REF_FRAME      = TEME
TIME_SYSTEM    = UTC
MEAN_ELEMENT_THEORY = SGP/SGP4

EPOCH          = 2025-11-27T06:00:02.000160
MEAN_MOTION    = 15.39563657
ECCENTRICITY   = .00013394
INCLINATION    = 53.1599
RA_OF_ASC_NODE = 310.2208
ARG_OF_PERICENTER = 90.4072
MEAN_ANOMALY   = 66.2378

EPHEMERIS_TYPE = 0
CLASSIFICATION_TYPE = U
NORAD_CAT_ID   = 66283
ELEMENT_SET_NO = 999
REV_AT_EPOCH   = 512
BSTAR          = .11199464E-2
MEAN_MOTION_DOT = .44576E-3
MEAN_MOTION_DDOT = 0

CCSDS_OMM_VERS = 2.0
CREATION_DATE  = 
ORIGINATOR     = 

OBJECT_NAME    = STARLINK-35830
OBJECT_ID      = 2025-247V
CENTER_NAME    = EARTH
REF_FRAME      = TEME
TIME_SYSTEM    = UTC
MEAN_ELEMENT_THEORY = SGP/SGP4

EPOCH          = 2025-11-27T06:00:02.000160
MEAN_MOTION    = 15.39565798
ECCENTRICITY   = .00012312
INCLINATION    = 53.1600
RA_OF_ASC_NODE = 310.2166
ARG_OF_PERICENTER = 84.7322
MEAN_ANOMALY   = 73.7725

EPHEMERIS_TYPE = 0
CLASSIFICATION_TYPE = U
NORAD_CAT_ID   = 66284
ELEMENT_SET_NO = 999
REV_AT_EPOCH   = 512
BSTAR          = .11115425E-2
MEAN_MOTION_DOT = .4424E-3
MEAN_MOTION_DDOT = 0

CCSDS_OMM_VERS = 2.0
CREATION_DATE  = 
ORIGINATOR     = 

OBJECT_NAME    = STARLINK-35819
OBJECT_ID      = 2025-247W
CENTER_NAME    = EARTH
REF_FRAME      = TEME
TIME_SYSTEM    = UTC
MEAN_ELEMENT_THEORY = SGP/SGP4

EPOCH          = 2025-11-27T06:00:02.000160
MEAN_MOTION    = 15.42862893
ECCENTRICITY   = .00013849
INCLINATION    = 53.1597
RA_OF_ASC_NODE = 310.1777
ARG_OF_PERICENTER = 73.2360
MEAN_ANOMALY   = 104.8494

EPHEMERIS_TYPE = 0
CLASSIFICATION_TYPE = U
NORAD_CAT_ID   = 66285
ELEMENT_SET_NO = 999
REV_AT_EPOCH   = 507
BSTAR          = -.49026946E-1
MEAN_MOTION_DOT = -.1952923E-1
MEAN_MOTION_DDOT = 0

CCSDS_OMM_VERS = 2.0
CREATION_DATE  = 
ORIGINATOR     = 

OBJECT_NAME    = STARLINK-35783
OBJECT_ID      = 2025-247X
CENTER_NAME    = EARTH
REF_FRAME      = TEME
TIME_SYSTEM    = UTC
MEAN_ELEMENT_THEORY = SGP/SGP4

EPOCH          = 2025-11-27T03:40:12.928224
MEAN_MOTION    = 15.43800204
ECCENTRICITY   = .00010347
INCLINATION    = 53.1597
RA_OF_ASC_NODE = 310.6326
ARG_OF_PERICENTER = 80.7867
MEAN_ANOMALY   = 279.3256

EPHEMERIS_TYPE = 0
CLASSIFICATION_TYPE = U
NORAD_CAT_ID   = 66286
ELEMENT_SET_NO = 999
REV_AT_EPOCH   = 529
BSTAR          = -.10191513E-1
MEAN_MOTION_DOT = -.443101E-2
MEAN_MOTION_DDOT = 0

CCSDS_OMM_VERS = 2.0
CREATION_DATE  = 
ORIGINATOR     = 

OBJECT_NAME    = STARLINK-34884
OBJECT_ID      = 2025-247Y
CENTER_NAME    = EARTH
REF_FRAME      = TEME
TIME_SYSTEM    = UTC
MEAN_ELEMENT_THEORY = SGP/SGP4

EPOCH          = 2025-11-27T02:03:19.899072
MEAN_MOTION    = 15.48792255
ECCENTRICITY   = .00067333
INCLINATION    = 53.1593
RA_OF_ASC_NODE = 310.9235
ARG_OF_PERICENTER = 291.9475
MEAN_ANOMALY   = 68.0818

EPHEMERIS_TYPE = 0
CLASSIFICATION_TYPE = U
NORAD_CAT_ID   = 66287
ELEMENT_SET_NO = 999
REV_AT_EPOCH   = 528
BSTAR          = .14127882E-2
MEAN_MOTION_DOT = .7754E-3
MEAN_MOTION_DDOT = 0

CCSDS_OMM_VERS = 2.0
CREATION_DATE  = 
ORIGINATOR     = 

OBJECT_NAME    = STARLINK-34896
OBJECT_ID      = 2025-247Z
CENTER_NAME    = EARTH
REF_FRAME      = TEME
TIME_SYSTEM    = UTC
MEAN_ELEMENT_THEORY = SGP/SGP4

EPOCH          = 2025-11-27T06:00:02.000160
MEAN_MOTION    = 15.45717002
ECCENTRICITY   = .00014605
INCLINATION    = 53.1594
RA_OF_ASC_NODE = 310.1433
ARG_OF_PERICENTER = 84.4484
MEAN_ANOMALY   = 110.6627

EPHEMERIS_TYPE = 0
CLASSIFICATION_TYPE = U
NORAD_CAT_ID   = 66288
ELEMENT_SET_NO = 999
REV_AT_EPOCH   = 540
BSTAR          = -.45810801E-1
MEAN_MOTION_DOT = -.2005983E-1
MEAN_MOTION_DDOT = 0

CCSDS_OMM_VERS = 2.0
CREATION_DATE  = 
ORIGINATOR     = 

OBJECT_NAME    = STARLINK-35802
OBJECT_ID      = 2025-247AA
CENTER_NAME    = EARTH
REF_FRAME      = TEME
TIME_SYSTEM    = UTC
MEAN_ELEMENT_THEORY = SGP/SGP4

EPOCH          = 2025-11-27T05:07:57.955008
MEAN_MOTION    = 15.49018024
ECCENTRICITY   = .00011688
INCLINATION    = 53.1595
RA_OF_ASC_NODE = 310.3007
ARG_OF_PERICENTER = 105.7631
MEAN_ANOMALY   = 254.3507

EPHEMERIS_TYPE = 0
CLASSIFICATION_TYPE = U
NORAD_CAT_ID   = 66289
ELEMENT_SET_NO = 999
REV_AT_EPOCH   = 530
BSTAR          = -.33400051E-2
MEAN_MOTION_DOT = -.180138E-2
MEAN_MOTION_DDOT = 0

CCSDS_OMM_VERS = 2.0
CREATION_DATE  = 
ORIGINATOR     = 

OBJECT_NAME    = STARLINK-35799
OBJECT_ID      = 2025-247AB
CENTER_NAME    = EARTH
REF_FRAME      = TEME
TIME_SYSTEM    = UTC
MEAN_ELEMENT_THEORY = SGP/SGP4

EPOCH          = 2025-11-27T06:40:42.000096
MEAN_MOTION    = 15.42644417
ECCENTRICITY   = .00339685
INCLINATION    = 53.1620
RA_OF_ASC_NODE = 309.9907
ARG_OF_PERICENTER = 69.5002
MEAN_ANOMALY   = 290.9645

EPHEMERIS_TYPE = 0
CLASSIFICATION_TYPE = U
NORAD_CAT_ID   = 66290
ELEMENT_SET_NO = 999
REV_AT_EPOCH   = 536
BSTAR          = -.93598323E-1
MEAN_MOTION_DOT = -.366139E-1
MEAN_MOTION_DDOT = 0

CCSDS_OMM_VERS = 2.0
CREATION_DATE  = 
ORIGINATOR     = 

OBJECT_NAME    = STARLINK-35800
OBJECT_ID      = 2025-247AC
CENTER_NAME    = EARTH
REF_FRAME      = TEME
TIME_SYSTEM    = UTC
MEAN_ELEMENT_THEORY = SGP/SGP4

EPOCH          = 2025-11-27T05:06:25.185600
MEAN_MOTION    = 15.49336406
ECCENTRICITY   = .00014146
INCLINATION    = 53.1595
RA_OF_ASC_NODE = 310.2932
ARG_OF_PERICENTER = 99.2581
MEAN_ANOMALY   = 260.8588

EPHEMERIS_TYPE = 0
CLASSIFICATION_TYPE = U
NORAD_CAT_ID   = 66291
ELEMENT_SET_NO = 999
REV_AT_EPOCH   = 535
BSTAR          = .11420297E-2
MEAN_MOTION_DOT = .63648E-3
MEAN_MOTION_DDOT = 0

